{
    "links": {
        "self": "http://www.neowsapp.com/rest/v1/neo/3367829?api_key=iIulBulltgU6a56xZRHN4H3l9WmuAYTsLGpBGhQ2"
    },
    "id": "3367829",
    "neo_reference_id": "3367829",
    "name": "(2007 CU18)",
    "designation": "2007 CU18",
    "nasa_jpl_url": "http://ssd.jpl.nasa.gov/sbdb.cgi?sstr=3367829",
    "absolute_magnitude_h": 24.4,
    "estimated_diameter": {
        "kilometers": {
            "estimated_diameter_min": 0.0350392641,
            "estimated_diameter_max": 0.0783501764
        },
        "meters": {
            "estimated_diameter_min": 35.0392641108,
            "estimated_diameter_max": 78.3501764334
        },
        "miles": {
            "estimated_diameter_min": 0.0217723826,
            "estimated_diameter_max": 0.0486845275
        },
        "feet": {
            "estimated_diameter_min": 114.9582192654,
            "estimated_diameter_max": 257.0543928497
        }
    },
    "is_potentially_hazardous_asteroid": false,
    "close_approach_data": [
        {
            "close_approach_date": "2007-01-31",
            "close_approach_date_full": "2007-Jan-31 07:24",
            "epoch_date_close_approach": 1170228240000,
            "relative_velocity": {
                "kilometers_per_second": "10.6811230178",
                "kilometers_per_hour": "38452.0428639896",
                "miles_per_hour": "23892.6040784607"
            },
            "miss_distance": {
                "astronomical": "0.0251806818",
                "lunar": "9.7952852202",
                "kilometers": "3766976.362427766",
                "miles": "2340690.5723485308"
            },
            "orbiting_body": "Earth"
        }
    ],
    "orbital_data": {
        "orbit_id": "9",
        "orbit_determination_date": "2017-04-06 09:07:06",
        "first_observation_date": "2007-02-09",
        "last_observation_date": "2007-02-16",
        "data_arc_in_days": 7,
        "observations_used": 28,
        "orbit_uncertainty": "8",
        "minimum_orbit_intersection": ".0143575",
        "jupiter_tisserand_invariant": "3.612",
        "epoch_osculation": "2454145.5",
        "eccentricity": ".5393921400802942",
        "semi_major_axis": "2.025582562777162",
        "inclination": "7.033388431103385",
        "ascending_node_longitude": "133.4398223269393",
        "orbital_period": "1052.987829145959",
        "perihelion_distance": ".9329992493314617",
        "perihelion_argument": "320.249139554328",
        "aphelion_distance": "3.118165876222863",
        "perihelion_time": "2454103.870951777565",
        "mean_anomaly": "14.23231773935277",
        "mean_motion": ".3418842934699284",
        "equinox": "J2000",
        "orbit_class": {
            "orbit_class_type": "APO",
            "orbit_class_description": "Near-Earth asteroid orbits which cross the Earth’s orbit similar to that of 1862 Apollo",
            "orbit_class_range": "a (semi-major axis) > 1.0 AU; q (perihelion) < 1.017 AU"
        }
    },
    "is_sentry_object": false
}